{"type": "FeatureCollection", "features": [ {"type": "Feature", "properties": {"norad_id": 37834, "name": "INTELSAT 18 (IS-18)", "group": "intelsat", "lat": 0.03570956107644352, "lon": 54.57321365843722, "alt_km": 35790.03885074926, "timestamp": "2025-12-21T09:37:22.316203+00:00", "meta": {"OBJECT_NAME": "INTELSAT 18 (IS-18)", "OBJECT_ID": "2011-056A", "EPOCH": "2025-12-21T02:04:13.099008", "MEAN_MOTION": 1.0027245, "ECCENTRICITY": 0.0001696, "INCLINATION": 0.032, "RA_OF_ASC_NODE": 281.1495, "ARG_OF_PERICENTER": 8.0974, "MEAN_ANOMALY": 11.7196, "EPHEMERIS_TYPE": 0, "CLASSIFICATION_TYPE": "U", "NORAD_CAT_ID": 37834, "ELEMENT_SET_NO": 999, "REV_AT_EPOCH": 5202, "BSTAR": 0, "MEAN_MOTION_DOT": 7.6e-07, "MEAN_MOTION_DDOT": 0}, "tle": {"line1": "1 37834U 11056A   25355.08626272  .00000076  00000+0  00000+0 0  9992", "line2": "2 37834   0.0320 281.1495 0001696   8.0974  11.7196  1.00272450 52027"}}, "geometry": {"type": "Point", "coordinates": [54.57321365843722, 0.03570956107644352]}}, {"type": "Feature", "properties": {"norad_id": 38098, "name": "INTELSAT 22 (IS-22)", "group": "intelsat", "lat": -0.03561897859169781, "lon": -53.3441040906876, "alt_km": 35779.769459767886, "timestamp": "2025-12-21T09:37:22.316215+00:00", "meta": {"OBJECT_NAME": "INTELSAT 22 (IS-22)", "OBJECT_ID": "2012-011A", "EPOCH": "2025-12-21T03:59:38.774400", "MEAN_MOTION": 1.002706, "ECCENTRICITY": 0.0001802, "INCLINATION": 0.0158, "RA_OF_ASC_NODE": 42.157, "ARG_OF_PERICENTER": 235.089, "MEAN_ANOMALY": 304.7466, "EPHEMERIS_TYPE": 0, "CLASSIFICATION_TYPE": "U", "NORAD_CAT_ID": 38098, "ELEMENT_SET_NO": 999, "REV_AT_EPOCH": 540, "BSTAR": 0, "MEAN_MOTION_DOT": -3.5e-07, "MEAN_MOTION_DDOT": 0}, "tle": {"line1": "1 38098U 12011A   25355.16642100 -.00000035  00000+0  00000+0 0  9990", "line2": "2 38098   0.0158  42.1570 0001802 235.0890 304.7466  1.00270600  5406"}}, "geometry": {"type": "Point", "coordinates": [-53.3441040906876, -0.03561897859169781]}}, {"type": "Feature", "properties": {"norad_id": 38356, "name": "INTELSAT 19 (IS-19)", "group": "intelsat", "lat": 0.020230057881125096, "lon": 40.5765131772028, "alt_km": 35794.2900544806, "timestamp": "2025-12-21T09:37:22.316227+00:00", "meta": {"OBJECT_NAME": "INTELSAT 19 (IS-19)", "OBJECT_ID": "2012-030A", "EPOCH": "2025-12-21T01:51:38.617056", "MEAN_MOTION": 1.00271299, "ECCENTRICITY": 0.0002742, "INCLINATION": 0.0109, "RA_OF_ASC_NODE": 13.4708, "ARG_OF_PERICENTER": 253.0268, "MEAN_ANOMALY": 17.3144, "EPHEMERIS_TYPE": 0, "CLASSIFICATION_TYPE": "U", "NORAD_CAT_ID": 38356, "ELEMENT_SET_NO": 999, "REV_AT_EPOCH": 4866, "BSTAR": 0, "MEAN_MOTION_DOT": -3.3e-07, "MEAN_MOTION_DDOT": 0}, "tle": {"line1": "1 38356U 12030A   25355.07753029 -.00000033  00000+0  00000+0 0  9999", "line2": "2 38356   0.0109  13.4708 0002742 253.0268  17.3144  1.00271299 48666"}}, "geometry": {"type": "Point", "coordinates": [40.5765131772028, 0.020230057881125096]}}, {"type": "Feature", "properties": {"norad_id": 38740, "name": "INTELSAT 20 (IS-20)", "group": "intelsat", "lat": -0.013165808810900653, "lon": -56.92470432532713, "alt_km": 35793.59863891179, "timestamp": "2025-12-21T09:37:22.316239+00:00", "meta": {"OBJECT_NAME": "INTELSAT 20 (IS-20)", "OBJECT_ID": "2012-043A", "EPOCH": "2025-12-20T23:49:43.623264", "MEAN_MOTION": 1.00270891, "ECCENTRICITY": 0.0003365, "INCLINATION": 0.0096, "RA_OF_ASC_NODE": 84.7488, "ARG_OF_PERICENTER": 97.2363, "MEAN_ANOMALY": 333.7536, "EPHEMERIS_TYPE": 0, "CLASSIFICATION_TYPE": "U", "NORAD_CAT_ID": 38740, "ELEMENT_SET_NO": 999, "REV_AT_EPOCH": 4896, "BSTAR": 0, "MEAN_MOTION_DOT": -1e-08, "MEAN_MOTION_DDOT": 0}, "tle": {"line1": "1 38740U 12043A   25354.99286601 -.00000001  00000+0  00000+0 0  9992", "line2": "2 38740   0.0096  84.7488 0003365  97.2363 333.7536  1.00270891 48960"}}, "geometry": {"type": "Point", "coordinates": [-56.92470432532713, -0.013165808810900653]}}, {"type": "Feature", "properties": {"norad_id": 38749, "name": "INTELSAT 21 (IS-21)", "group": "intelsat", "lat": -0.018519504806429762, "lon": 176.54003198331017, "alt_km": 35785.420706254445, "timestamp": "2025-12-21T09:37:22.316250+00:00", "meta": {"OBJECT_NAME": "INTELSAT 21 (IS-21)", "OBJECT_ID": "2012-045A", "EPOCH": "2025-12-21T02:39:02.263104", "MEAN_MOTION": 1.00272127, "ECCENTRICITY": 0.0001509, "INCLINATION": 0.0238, "RA_OF_ASC_NODE": 290.5634, "ARG_OF_PERICENTER": 330.4736, "MEAN_ANOMALY": 170.6587, "EPHEMERIS_TYPE": 0, "CLASSIFICATION_TYPE": "U", "NORAD_CAT_ID": 38749, "ELEMENT_SET_NO": 999, "REV_AT_EPOCH": 4873, "BSTAR": 0, "MEAN_MOTION_DOT": -2.62e-06, "MEAN_MOTION_DDOT": 0}, "tle": {"line1": "1 38749U 12045A   25355.11044286 -.00000262  00000+0  00000+0 0  9998", "line2": "2 38749   0.0238 290.5634 0001509 330.4736 170.6587  1.00272127 48734"}}, "geometry": {"type": "Point", "coordinates": [176.54003198331017, -0.018519504806429762]}}, {"type": "Feature", "properties": {"norad_id": 38867, "name": "INTELSAT 23 (IS-23)", "group": "intelsat", "lat": 0.015160909410976118, "lon": -178.4277741367716, "alt_km": 35788.06400786632, "timestamp": "2025-12-21T09:37:22.316261+00:00", "meta": {"OBJECT_NAME": "INTELSAT 23 (IS-23)", "OBJECT_ID": "2012-057A", "EPOCH": "2025-12-21T02:40:24.630816", "MEAN_MOTION": 1.00269429, "ECCENTRICITY": 6.46e-05, "INCLINATION": 0.016, "RA_OF_ASC_NODE": 63.0533, "ARG_OF_PERICENTER": 236.9291, "MEAN_ANOMALY": 137.0816, "EPHEMERIS_TYPE": 0, "CLASSIFICATION_TYPE": "U", "NORAD_CAT_ID": 38867, "ELEMENT_SET_NO": 999, "REV_AT_EPOCH": 4816, "BSTAR": 0, "MEAN_MOTION_DOT": -2.62e-06, "MEAN_MOTION_DDOT": 0}, "tle": {"line1": "1 38867U 12057A   25355.11139619 -.00000262  00000+0  00000+0 0  9997", "line2": "2 38867   0.0160  63.0533 0000646 236.9291 137.0816  1.00269429 48167"}}, "geometry": {"type": "Point", "coordinates": [-178.4277741367716, 0.015160909410976118]}}, {"type": "Feature", "properties": {"norad_id": 39360, "name": "FM-6", "group": "intelsat", "lat": 0.024584691024304325, "lon": 118.37888179493623, "alt_km": 35778.14662962312, "timestamp": "2025-12-21T09:37:22.316273+00:00", "meta": {"OBJECT_NAME": "FM-6", "OBJECT_ID": "2013-058A", "EPOCH": "2025-12-20T21:14:21.005376", "MEAN_MOTION": 1.00274969, "ECCENTRICITY": 0.000291, "INCLINATION": 0.0116, "RA_OF_ASC_NODE": 64.5773, "ARG_OF_PERICENTER": 108.7447, "MEAN_ANOMALY": 118.8224, "EPHEMERIS_TYPE": 0, "CLASSIFICATION_TYPE": "U", "NORAD_CAT_ID": 39360, "ELEMENT_SET_NO": 999, "REV_AT_EPOCH": 4428, "BSTAR": 0, "MEAN_MOTION_DOT": 6e-08, "MEAN_MOTION_DDOT": 0}, "tle": {"line1": "1 39360U 13058A   25354.88496534  .00000006  00000+0  00000+0 0  9998", "line2": "2 39360   0.0116  64.5773 0002910 108.7447 118.8224  1.00274969 44288"}}, "geometry": {"type": "Point", "coordinates": [118.37888179493623, 0.024584691024304325]}}, {"type": "Feature", "properties": {"norad_id": 40271, "name": "INTELSAT 30 (IS-30)", "group": "intelsat", "lat": 0.03304310905196582, "lon": 139.5208388616939, "alt_km": 35781.42159358708, "timestamp": "2025-12-21T09:37:22.316285+00:00", "meta": {"OBJECT_NAME": "INTELSAT 30 (IS-30)", "OBJECT_ID": "2014-062A", "EPOCH": "2025-12-21T02:28:25.779360", "MEAN_MOTION": 1.00271873, "ECCENTRICITY": 0.0001654, "INCLINATION": 0.0153, "RA_OF_ASC_NODE": 22.7027, "ARG_OF_PERICENTER": 68.3073, "MEAN_ANOMALY": 300.9758, "EPHEMERIS_TYPE": 0, "CLASSIFICATION_TYPE": "U", "NORAD_CAT_ID": 40271, "ELEMENT_SET_NO": 999, "REV_AT_EPOCH": 500, "BSTAR": 0, "MEAN_MOTION_DOT": -1.28e-06, "MEAN_MOTION_DDOT": 0}, "tle": {"line1": "1 40271U 14062A   25355.10307615 -.00000128  00000+0  00000+0 0  9990", "line2": "2 40271   0.0153  22.7027 0001654  68.3073 300.9758  1.00271873  5004"}}, "geometry": {"type": "Point", "coordinates": [139.5208388616939, 0.03304310905196582]}}, {"type": "Feature", "properties": {"norad_id": 40333, "name": "DIRECTV 14", "group": "intelsat", "lat": 0.039434903119729435, "lon": 135.32765527966143, "alt_km": 35785.788056347774, "timestamp": "2025-12-21T09:37:22.316296+00:00", "meta": {"OBJECT_NAME": "DIRECTV 14", "OBJECT_ID": "2014-078B", "EPOCH": "2025-12-21T04:01:00.087168", "MEAN_MOTION": 1.00268951, "ECCENTRICITY": 2.67e-05, "INCLINATION": 0.025, "RA_OF_ASC_NODE": 6.8273, "ARG_OF_PERICENTER": 114.0046, "MEAN_ANOMALY": 290.183, "EPHEMERIS_TYPE": 0, "CLASSIFICATION_TYPE": "U", "NORAD_CAT_ID": 40333, "ELEMENT_SET_NO": 999, "REV_AT_EPOCH": 4025, "BSTAR": 0, "MEAN_MOTION_DOT": 0, "MEAN_MOTION_DDOT": 0}, "tle": {"line1": "1 40333U 14078B   25355.16736212  .00000000  00000+0  00000+0 0  9999", "line2": "2 40333   0.0250   6.8273 0000267 114.0046 290.1830  1.00268951 40255"}}, "geometry": {"type": "Point", "coordinates": [135.32765527966143, 0.039434903119729435]}}, {"type": "Feature", "properties": {"norad_id": 40663, "name": "DIRECTV 15", "group": "intelsat", "lat": 0.04452273314532399, "lon": 131.6742289940836, "alt_km": 35785.1981743227, "timestamp": "2025-12-21T09:37:22.316307+00:00", "meta": {"OBJECT_NAME": "DIRECTV 15", "OBJECT_ID": "2015-026A", "EPOCH": "2025-12-21T04:16:38.932032", "MEAN_MOTION": 1.00269805, "ECCENTRICITY": 3.42e-05, "INCLINATION": 0.025, "RA_OF_ASC_NODE": 19.43, "ARG_OF_PERICENTER": 116.583, "MEAN_ANOMALY": 275.2713, "EPHEMERIS_TYPE": 0, "CLASSIFICATION_TYPE": "U", "NORAD_CAT_ID": 40663, "ELEMENT_SET_NO": 999, "REV_AT_EPOCH": 3867, "BSTAR": 0, "MEAN_MOTION_DOT": 0, "MEAN_MOTION_DDOT": 0}, "tle": {"line1": "1 40663U 15026A   25355.17822838  .00000000  00000+0  00000+0 0  9990", "line2": "2 40663   0.0250  19.4300 0000342 116.5830 275.2713  1.00269805 38670"}}, "geometry": {"type": "Point", "coordinates": [131.6742289940836, 0.04452273314532399]}}]}